[{"OBJECT_NAME":"ONEWEB-0625","OBJECT_ID":"2023-004AC","EPOCH":"2025-12-30T03:01:25.310496","MEAN_MOTION":13.17650154,"ECCENTRICITY":0.00019006,"INCLINATION":87.9094,"RA_OF_ASC_NODE":39.49,"ARG_OF_PERICENTER":92.3748,"MEAN_ANOMALY":267.7601,"EPHEMERIS_TYPE":0,"CLASSIFICATION_TYPE":"U","NORAD_CAT_ID":55166,"ELEMENT_SET_NO":999,"REV_AT_EPOCH":14531,"BSTAR":5.8655275e-5,"MEAN_MOTION_DOT":3.6e-7,"MEAN_MOTION_DDOT":0},{"OBJECT_NAME":"ONEWEB-0626","OBJECT_ID":"2023-004AD","EPOCH":"2025-12-30T02:46:49.964448","MEAN_MOTION":13.17648134,"ECCENTRICITY":0.00013241,"INCLINATION":87.9091,"RA_OF_ASC_NODE":39.492,"ARG_OF_PERICENTER":94.6795,"MEAN_ANOMALY":265.4488,"EPHEMERIS_TYPE":0,"CLASSIFICATION_TYPE":"U","NORAD_CAT_ID":55167,"ELEMENT_SET_NO":999,"REV_AT_EPOCH":14531,"BSTAR":0.00015111014,"MEAN_MOTION_DOT":7.2e-7,"MEAN_MOTION_DDOT":0},{"OBJECT_NAME":"ONEWEB-0627","OBJECT_ID":"2023-004AE","EPOCH":"2025-12-30T07:57:53.785728","MEAN_MOTION":13.17649996,"ECCENTRICITY":0.00020485,"INCLINATION":87.909,"RA_OF_ASC_NODE":39.4492,"ARG_OF_PERICENTER":110.8109,"MEAN_ANOMALY":249.3242,"EPHEMERIS_TYPE":0,"CLASSIFICATION_TYPE":"U","NORAD_CAT_ID":55168,"ELEMENT_SET_NO":999,"REV_AT_EPOCH":14534,"BSTAR":0.00025719594,"MEAN_MOTION_DOT":1.13e-6,"MEAN_MOTION_DDOT":0},{"OBJECT_NAME":"ONEWEB-0628","OBJECT_ID":"2023-004AF","EPOCH":"2025-12-30T07:27:50.910624","MEAN_MOTION":13.12444474,"ECCENTRICITY":0.00023997,"INCLINATION":87.8927,"RA_OF_ASC_NODE":24.1906,"ARG_OF_PERICENTER":105.3048,"MEAN_ANOMALY":254.8346,"EPHEMERIS_TYPE":0,"CLASSIFICATION_TYPE":"U","NORAD_CAT_ID":55169,"ELEMENT_SET_NO":999,"REV_AT_EPOCH":14588,"BSTAR":-0.00095648024,"MEAN_MOTION_DOT":-3.31e-6,"MEAN_MOTION_DDOT":0},{"OBJECT_NAME":"ONEWEB-0629","OBJECT_ID":"2023-004AG","EPOCH":"2025-12-30T03:43:57.871488","MEAN_MOTION":13.17649014,"ECCENTRICITY":0.0002149,"INCLINATION":87.9094,"RA_OF_ASC_NODE":39.4819,"ARG_OF_PERICENTER":95.3478,"MEAN_ANOMALY":264.7898,"EPHEMERIS_TYPE":0,"CLASSIFICATION_TYPE":"U","NORAD_CAT_ID":55170,"ELEMENT_SET_NO":999,"REV_AT_EPOCH":14532,"BSTAR":-2.2752156e-5,"MEAN_MOTION_DOT":4.0e-8,"MEAN_MOTION_DDOT":0},{"OBJECT_NAME":"ONEWEB-0631","OBJECT_ID":"2023-004AH","EPOCH":"2025-12-30T01:09:31.779936","MEAN_MOTION":13.18685942,"ECCENTRICITY":0.00013298,"INCLINATION":87.9176,"RA_OF_ASC_NODE":9.0198,"ARG_OF_PERICENTER":101.5262,"MEAN_ANOMALY":258.6019,"EPHEMERIS_TYPE":0,"CLASSIFICATION_TYPE":"U","NORAD_CAT_ID":55171,"ELEMENT_SET_NO":999,"REV_AT_EPOCH":14738,"BSTAR":-0.00042426204,"MEAN_MOTION_DOT":-1.54e-6,"MEAN_MOTION_DDOT":0},{"OBJECT_NAME":"ONEWEB-0709","OBJECT_ID":"2023-004AJ","EPOCH":"2025-12-30T04:58:04.839744","MEAN_MOTION":13.11416878,"ECCENTRICITY":8.883e-5,"INCLINATION":87.8839,"RA_OF_ASC_NODE":54.7326,"ARG_OF_PERICENTER":91.8273,"MEAN_ANOMALY":268.2957,"EPHEMERIS_TYPE":0,"CLASSIFICATION_TYPE":"U","NORAD_CAT_ID":55172,"ELEMENT_SET_NO":999,"REV_AT_EPOCH":14372,"BSTAR":0.0014314056,"MEAN_MOTION_DOT":5.2e-6,"MEAN_MOTION_DDOT":0},{"OBJECT_NAME":"ONEWEB-0710","OBJECT_ID":"2023-004AK","EPOCH":"2025-12-30T04:04:37.202592","MEAN_MOTION":13.17648921,"ECCENTRICITY":0.00018199,"INCLINATION":87.9092,"RA_OF_ASC_NODE":39.4732,"ARG_OF_PERICENTER":101.8065,"MEAN_ANOMALY":258.3271,"EPHEMERIS_TYPE":0,"CLASSIFICATION_TYPE":"U","NORAD_CAT_ID":55173,"ELEMENT_SET_NO":999,"REV_AT_EPOCH":14532,"BSTAR":5.6502177e-5,"MEAN_MOTION_DOT":3.5e-7,"MEAN_MOTION_DDOT":0},{"OBJECT_NAME":"ONEWEB-0711","OBJECT_ID":"2023-004AL","EPOCH":"2025-12-30T04:16:35.214240","MEAN_MOTION":13.11411143,"ECCENTRICITY":0.00022637,"INCLINATION":87.8854,"RA_OF_ASC_NODE":54.7148,"ARG_OF_PERICENTER":119.1756,"MEAN_ANOMALY":240.9599,"EPHEMERIS_TYPE":0,"CLASSIFICATION_TYPE":"U","NORAD_CAT_ID":55174,"ELEMENT_SET_NO":999,"REV_AT_EPOCH":14368,"BSTAR":-0.0039156629,"MEAN_MOTION_DOT":-1.375e-5,"MEAN_MOTION_DDOT":0},{"OBJECT_NAME":"ONEWEB-0713","OBJECT_ID":"2023-004AM","EPOCH":"2025-12-30T04:43:25.796640","MEAN_MOTION":13.11418271,"ECCENTRICITY":0.00020169,"INCLINATION":87.8844,"RA_OF_ASC_NODE":54.7118,"ARG_OF_PERICENTER":112.4532,"MEAN_ANOMALY":247.681,"EPHEMERIS_TYPE":0,"CLASSIFICATION_TYPE":"U","NORAD_CAT_ID":55175,"ELEMENT_SET_NO":999,"REV_AT_EPOCH":14367,"BSTAR":0.00040929786,"MEAN_MOTION_DOT":1.58e-6,"MEAN_MOTION_DDOT":0},{"OBJECT_NAME":"ONEWEB-0715","OBJECT_ID":"2023-004AN","EPOCH":"2025-12-30T04:36:05.923872","MEAN_MOTION":13.11418377,"ECCENTRICITY":0.00011172,"INCLINATION":87.8845,"RA_OF_ASC_NODE":54.7133,"ARG_OF_PERICENTER":114.9937,"MEAN_ANOMALY":245.1307,"EPHEMERIS_TYPE":0,"CLASSIFICATION_TYPE":"U","NORAD_CAT_ID":55176,"ELEMENT_SET_NO":999,"REV_AT_EPOCH":14371,"BSTAR":-0.00029103518,"MEAN_MOTION_DOT":-9.0e-7,"MEAN_MOTION_DDOT":0},{"OBJECT_NAME":"ONEWEB-0716","OBJECT_ID":"2023-004AP","EPOCH":"2025-12-30T03:54:52.447392","MEAN_MOTION":13.17650669,"ECCENTRICITY":0.00018401,"INCLINATION":87.9093,"RA_OF_ASC_NODE":39.4746,"ARG_OF_PERICENTER":89.8247,"MEAN_ANOMALY":270.3096,"EPHEMERIS_TYPE":0,"CLASSIFICATION_TYPE":"U","NORAD_CAT_ID":55177,"ELEMENT_SET_NO":999,"REV_AT_EPOCH":14532,"BSTAR":0.0002478606,"MEAN_MOTION_DOT":1.09e-6,"MEAN_MOTION_DDOT":0},{"OBJECT_NAME":"ONEWEB-0717","OBJECT_ID":"2023-004AQ","EPOCH":"2025-12-30T03:30:34.094016","MEAN_MOTION":13.1764885,"ECCENTRICITY":0.00020022,"INCLINATION":87.9103,"RA_OF_ASC_NODE":39.4505,"ARG_OF_PERICENTER":117.9642,"MEAN_ANOMALY":242.1693,"EPHEMERIS_TYPE":0,"CLASSIFICATION_TYPE":"U","NORAD_CAT_ID":55178,"ELEMENT_SET_NO":999,"REV_AT_EPOCH":14537,"BSTAR":-0.00069293714,"MEAN_MOTION_DOT":-2.56e-6,"MEAN_MOTION_DDOT":0},{"OBJECT_NAME":"ONEWEB-0719","OBJECT_ID":"2023-004AR","EPOCH":"2025-12-30T03:45:10.882944","MEAN_MOTION":13.17649256,"ECCENTRICITY":0.00019967,"INCLINATION":87.9102,"RA_OF_ASC_NODE":39.4308,"ARG_OF_PERICENTER":93.3781,"MEAN_ANOMALY":266.7579,"EPHEMERIS_TYPE":0,"CLASSIFICATION_TYPE":"U","NORAD_CAT_ID":55179,"ELEMENT_SET_NO":999,"REV_AT_EPOCH":14532,"BSTAR":0.00011089814,"MEAN_MOTION_DOT":5.6e-7,"MEAN_MOTION_DDOT":0},{"OBJECT_NAME":"ONEWEB-0530","OBJECT_ID":"2023-029A","EPOCH":"2025-12-30T07:18:13.643712","MEAN_MOTION":13.20771428,"ECCENTRICITY":0.00020524,"INCLINATION":87.9216,"RA_OF_ASC_NODE":308.1669,"ARG_OF_PERICENTER":90.4606,"MEAN_ANOMALY":269.6763,"EPHEMERIS_TYPE":0,"CLASSIFICATION_TYPE":"U","NORAD_CAT_ID":55796,"ELEMENT_SET_NO":999,"REV_AT_EPOCH":13885,"BSTAR":-5.7990243e-5,"MEAN_MOTION_DOT":-1.1e-7,"MEAN_MOTION_DDOT":0},{"OBJECT_NAME":"ONEWEB-0534","OBJECT_ID":"2023-029B","EPOCH":"2025-12-30T07:00:03.715488","MEAN_MOTION":13.20770864,"ECCENTRICITY":0.00018554,"INCLINATION":87.9213,"RA_OF_ASC_NODE":308.1694,"ARG_OF_PERICENTER":74.6955,"MEAN_ANOMALY":285.4383,"EPHEMERIS_TYPE":0,"CLASSIFICATION_TYPE":"U","NORAD_CAT_ID":55797,"ELEMENT_SET_NO":999,"REV_AT_EPOCH":13885,"BSTAR":0.0002601845,"MEAN_MOTION_DOT":1.19e-6,"MEAN_MOTION_DDOT":0}]
