ONEWEB-0625             
1 55166U 23004AC  25364.12598739  .00000036  00000+0  58655-4 0  9997
2 55166  87.9094  39.4900 0001900  92.3748 267.7601 13.17650154145316
ONEWEB-0626             
1 55167U 23004AD  25364.11585607  .00000072  00000+0  15111-3 0  9996
2 55167  87.9091  39.4920 0001324  94.6795 265.4488 13.17648134145316
ONEWEB-0627             
1 55168U 23004AE  25364.33187252  .00000113  00000+0  25720-3 0  9998
2 55168  87.9090  39.4492 0002048 110.8109 249.3242 13.17649996145343
ONEWEB-0628             
1 55169U 23004AF  25364.31100591 -.00000331  00000+0 -95648-3 0  9998
2 55169  87.8927  24.1906 0002399 105.3048 254.8346 13.12444474145887
ONEWEB-0629             
1 55170U 23004AG  25364.15553092  .00000004  00000+0 -22752-4 0  9993
2 55170  87.9094  39.4819 0002149  95.3478 264.7898 13.17649014145328
ONEWEB-0631             
1 55171U 23004AH  25364.04828449 -.00000154  00000+0 -42426-3 0  9999
2 55171  87.9176   9.0198 0001329 101.5262 258.6019 13.18685942147389
ONEWEB-0709             
1 55172U 23004AJ  25364.20700046  .00000520  00000+0  14314-2 0  9999
2 55172  87.8839  54.7326 0000888  91.8273 268.2957 13.11416878143722
ONEWEB-0710             
1 55173U 23004AK  25364.16987503  .00000035  00000+0  56502-4 0  9998
2 55173  87.9092  39.4732 0001819 101.8065 258.3271 13.17648921145321
ONEWEB-0711             
1 55174U 23004AL  25364.17818535 -.00001375  00000+0 -39157-2 0  9993
2 55174  87.8854  54.7148 0002263 119.1756 240.9599 13.11411143143686
ONEWEB-0713             
1 55175U 23004AM  25364.19682635  .00000158  00000+0  40930-3 0  9994
2 55175  87.8844  54.7118 0002016 112.4532 247.6810 13.11418271143675
ONEWEB-0715             
1 55176U 23004AN  25364.19173523 -.00000090  00000+0 -29104-3 0  9993
2 55176  87.8845  54.7133 0001117 114.9937 245.1307 13.11418377143717
ONEWEB-0716             
1 55177U 23004AP  25364.16310703  .00000109  00000+0  24786-3 0  9994
2 55177  87.9093  39.4746 0001840  89.8247 270.3096 13.17650669145323
ONEWEB-0717             
1 55178U 23004AQ  25364.14622794 -.00000256  00000+0 -69294-3 0  9997
2 55178  87.9103  39.4505 0002002 117.9642 242.1693 13.17648850145376
ONEWEB-0719             
1 55179U 23004AR  25364.15637596  .00000056  00000+0  11090-3 0  9992
2 55179  87.9102  39.4308 0001996  93.3781 266.7579 13.17649256145320
ONEWEB-0530             
1 55796U 23029A   25364.30432458 -.00000011  00000+0 -57990-4 0  9994
2 55796  87.9216 308.1669 0002052  90.4606 269.6763 13.20771428138853
ONEWEB-0534             
1 55797U 23029B   25364.29170967  .00000119  00000+0  26018-3 0  9990
2 55797  87.9213 308.1694 0001855  74.6955 285.4383 13.20770864138857
